{"fetched_at":"2026-03-30T06:02:59Z","count":15439,"tles":[{"name":"STARLINK-32235","line1":"1 60739U 24152V   26087.66576286  .00000873  00000+0  41594-4 0  9992","line2":"2 60739  53.1612 180.4644 0001545  80.7178 279.3998 15.30198511 89703","category":"Starlink"}]}